[{"OBJECT_NAME":"NUSAT-50 (NANCY ROMAN)","OBJECT_ID":"2024-149AB","EPOCH":"2026-03-09T19:15:16.765632","MEAN_MOTION":15.29713355,"ECCENTRICITY":0.00025229,"INCLINATION":97.3817,"RA_OF_ASC_NODE":150.7693,"ARG_OF_PERICENTER":238.0469,"MEAN_ANOMALY":122.0527,"EPHEMERIS_TYPE":0,"CLASSIFICATION_TYPE":"U","NORAD_CAT_ID":60493,"ELEMENT_SET_NO":999,"REV_AT_EPOCH":8693,"BSTAR":0.0004225155,"MEAN_MOTION_DOT":0.00012094,"MEAN_MOTION_DDOT":0},{"OBJECT_NAME":"STARLINK-32559","OBJECT_ID":"2024-207D","EPOCH":"2026-03-09T22:38:56.289984","MEAN_MOTION":15.27608664,"ECCENTRICITY":0.00021124,"INCLINATION":42.9974,"RA_OF_ASC_NODE":280.0749,"ARG_OF_PERICENTER":40.4173,"MEAN_ANOMALY":319.6835,"EPHEMERIS_TYPE":0,"CLASSIFICATION_TYPE":"U","NORAD_CAT_ID":61915,"ELEMENT_SET_NO":999,"REV_AT_EPOCH":7476,"BSTAR":0.00090887555,"MEAN_MOTION_DOT":0.00024855,"MEAN_MOTION_DDOT":0}]
